[{"OBJECT_NAME":"STARLINK-6075","OBJECT_ID":"2023-046K","EPOCH":"2026-03-09T23:11:06.102240","MEAN_MOTION":15.02530441,"ECCENTRICITY":0.00013026,"INCLINATION":43.0018,"RA_OF_ASC_NODE":157.4403,"ARG_OF_PERICENTER":269.7167,"MEAN_ANOMALY":90.3526,"EPHEMERIS_TYPE":0,"CLASSIFICATION_TYPE":"U","NORAD_CAT_ID":56102,"ELEMENT_SET_NO":999,"REV_AT_EPOCH":16210,"BSTAR":-1.9428073e-5,"MEAN_MOTION_DOT":-4.66e-6,"MEAN_MOTION_DDOT":0},{"OBJECT_NAME":"CZ-6A DEB","OBJECT_ID":"2024-140ABZ","EPOCH":"2026-03-09T13:17:15.461088","MEAN_MOTION":14.68773562,"ECCENTRICITY":0.01674753,"INCLINATION":88.9962,"RA_OF_ASC_NODE":280.8142,"ARG_OF_PERICENTER":196.7539,"MEAN_ANOMALY":162.8109,"EPHEMERIS_TYPE":0,"CLASSIFICATION_TYPE":"U","NORAD_CAT_ID":61809,"ELEMENT_SET_NO":999,"REV_AT_EPOCH":8094,"BSTAR":0.00036405273,"MEAN_MOTION_DOT":2.652e-5,"MEAN_MOTION_DDOT":0}]
